NORAD_CAT_ID,OBJECT_NAME,OBJECT_TYPE,EPOCH,MEAN_MOTION,ECCENTRICITY,INCLINATION,RA_OF_ASC_NODE,ARG_OF_PERICENTER,MEAN_ANOMALY,BSTAR,MEAN_MOTION_DOT,MEAN_MOTION_DDOT,TLE_LINE0,TLE_LINE1,TLE_LINE2,SEMIMAJOR_AXIS,PERIOD,APOGEE,PERIGEE,DECAYED
49745.0,STARLINK-3241,PAYLOAD,2022-11-21 12:21:57,15.08844711,0.0002243,53.216,154.8788,44.7705,315.3468,1.2279e-05,-9.3e-07,0.0,0 STARLINK-3241,1 49745U 21115X   22325.51525392 -.00000093  00000-0  12279-4 0  9993,2 49745  53.2160 154.8788 0002243  44.7705 315.3468 15.08844711 53745,6917.866,95.437,541.283,538.179,0.0
49745.0,STARLINK-3241,PAYLOAD,2022-11-21 21:54:16,15.08841708,0.0002325,53.2162,153.0943,45.8943,314.224,0.00011911,1.608e-05,0.0,0 STARLINK-3241,1 49745U 21115X   22325.91269207  .00001608  00000-0  11911-3 0  9990,2 49745  53.2162 153.0943 0002325  45.8943 314.2240 15.08841708 53804,6917.875,95.437,541.349,538.132,0.0
49745.0,STARLINK-3241,PAYLOAD,2022-11-22 12:12:44,15.08844376,0.0002347,53.2163,150.4179,46.8219,313.2969,0.00011748,1.582e-05,0.0,0 STARLINK-3241,1 49745U 21115X   22326.50885010  .00001582  00000-0  11748-3 0  9991,2 49745  53.2163 150.4179 0002347  46.8219 313.2969 15.08844376 55003,6917.8669999999975,95.437,541.356,538.1080000000002,0.0
49745.0,STARLINK-3241,PAYLOAD,2022-11-22 18:34:17,15.08845296,0.0002318,53.2165,149.2289,46.4741,313.6443,9.2714e-05,1.188e-05,0.0,0 STARLINK-3241,1 49745U 21115X   22326.77380887  .00001188  00000-0  92714-4 0  9997,2 49745  53.2165 149.2289 0002318  46.4741 313.6443 15.08845296 53930,6917.864000000001,95.437,541.3330000000002,538.126,0.0
49745.0,STARLINK-3241,PAYLOAD,2022-11-23 12:03:32,15.08833304,0.0002354,53.2163,145.9582,47.2003,312.9187,-2.6731e-05,-7.14e-06,0.0,0 STARLINK-3241,1 49745U 21115X   22327.50246089 -.00000714  00000-0 -26731-4 0  9996,2 49745  53.2163 145.9582 0002354  47.2003 312.9187 15.08833304 55157,6917.901,95.438,541.394,538.137,0.0
49745.0,STARLINK-3241,PAYLOAD,2022-11-23 18:25:04,15.08836508,0.0002361,53.2162,144.7686,47.3637,312.7553,-1.6063e-06,-3.14e-06,0.0,0 STARLINK-3241,1 49745U 21115X   22327.76741847 -.00000314  00000-0 -16063-5 0  9990,2 49745  53.2162 144.7686 0002361  47.3637 312.7553 15.08836508 54085,6917.891,95.438,541.389,538.123,0.0
49745.0,STARLINK-3241,PAYLOAD,2022-11-24 11:54:19,15.08840858,0.0002401,53.2157,141.4984,42.9888,317.1291,2.5561e-06,-2.48e-06,0.0,0 STARLINK-3241,1 49745U 21115X   22328.49605612 -.00000248  00000-0  25561-5 0  9998,2 49745  53.2157 141.4984 0002401  42.9888 317.1291 15.08840858 55305,6917.878000000002,95.438,541.404,538.082,0.0
49745.0,STARLINK-3241,PAYLOAD,2022-11-24 18:15:51,15.08841804,0.0002406,53.2156,140.3088,43.6491,316.4691,1.1434e-05,-1.06e-06,0.0,0 STARLINK-3241,1 49745U 21115X   22328.76101511 -.00000106  00000-0  11434-4 0  9993,2 49745  53.2156 140.3088 0002406  43.6491 316.4691 15.08841804 54239,6917.875,95.437,541.404,538.075,0.0
49745.0,STARLINK-3241,PAYLOAD,2022-11-25 11:45:06,15.08839677,0.0002398,53.2165,137.0367,48.7553,311.3646,9.2923e-05,1.191e-05,0.0,0 STARLINK-3241,1 49745U 21115X   22329.48965569  .00001191  00000-0  92923-4 0  9990,2 49745  53.2165 137.0367 0002398  48.7553 311.3646 15.08839677 54348,6917.880999999999,95.438,541.405,538.087,0.0
49745.0,STARLINK-3241,PAYLOAD,2022-11-25 18:06:38,15.08842725,0.00024,53.2165,135.8472,49.3835,310.7366,0.0001131,1.512e-05,0.0,0 STARLINK-3241,1 49745U 21115X   22329.75461325  .00001512  00000-0  11310-3 0  9998,2 49745  53.2165 135.8472 0002400  49.3835 310.7366 15.08842725 55492,6917.871999999999,95.437,541.3969999999998,538.077,0.0
49745.0,STARLINK-3241,PAYLOAD,2022-11-26 11:35:53,15.08836334,0.0002339,53.2166,132.5761,47.1552,312.9636,1.3702e-05,-7e-07,0.0,0 STARLINK-3241,1 49745U 21115X   22330.48325898 -.00000070  00000-0  13702-4 0  9991,2 49745  53.2166 132.5761 0002339  47.1552 312.9636 15.08836334 55607,6917.892,95.438,541.375,538.138,0.0
49745.0,STARLINK-3241,PAYLOAD,2022-11-26 19:32:49,15.0883542,0.0002444,53.2174,131.0898,51.6984,308.4228,-2.8872e-06,-3.34e-06,0.0,0 STARLINK-3241,1 49745U 21115X   22330.81446055 -.00000334  00000-0 -28872-5 0  9996,2 49745  53.2174 131.0898 0002444  51.6984 308.4228 15.08835420 54541,6917.894,95.438,541.45,538.069,0.0
49745.0,STARLINK-3241,PAYLOAD,2022-11-27 11:26:40,15.08842928,0.0002445,53.2169,128.1154,51.2172,308.9038,-4.8932e-06,-3.66e-06,0.0,0 STARLINK-3241,1 49745U 21115X   22331.47685551 -.00000366  00000-0 -48932-5 0  9999,2 49745  53.2169 128.1154 0002445  51.2172 308.9038 15.08842928 54649,6917.871,95.437,541.428,538.045,0.0
49745.0,STARLINK-3241,PAYLOAD,2022-11-27 20:58:59,15.08840099,0.0002366,53.2163,126.3316,49.1785,310.9412,-7.2511e-06,-4.04e-06,0.0,0 STARLINK-3241,1 49745U 21115X   22331.87429667 -.00000404  00000-0 -72511-5 0  9990,2 49745  53.2163 126.3316 0002366  49.1785 310.9412 15.08840099 55817,6917.88,95.438,541.382,538.1080000000002,0.0
49745.0,STARLINK-3241,PAYLOAD,2022-11-28 11:17:28,15.08830495,0.0002493,53.2158,123.6551,51.9865,308.1351,-6.3496e-05,-1.299e-05,0.0,0 STARLINK-3241,1 49745U 21115X   22332.47046657 -.00001299  00000-0 -63496-4 0  9995,2 49745  53.2158 123.6551 0002493  51.9865 308.1351 15.08830495 55903,6917.909000000002,95.438,541.499,538.05,0.0
49745.0,STARLINK-3241,PAYLOAD,2022-11-29 03:11:19,15.08834261,0.000235,53.2162,120.6814,50.4018,309.7181,7.4367e-05,8.95e-06,0.0,0 STARLINK-3241,1 49745U 21115X   22333.13286260  .00000895  00000-0  74367-4 0  9993,2 49745  53.2162 120.6814 0002350  50.4018 309.7181 15.08834261 56008,6917.898,95.438,541.389,538.137,0.0
49745.0,STARLINK-3241,PAYLOAD,2022-11-29 11:08:14,15.08840371,0.0002384,53.2167,119.1942,51.6154,308.5052,6.017e-05,6.69e-06,0.0,0 STARLINK-3241,1 49745U 21115X   22333.46405986  .00000669  00000-0  60170-4 0  9993,2 49745  53.2167 119.1942 0002384  51.6154 308.5052 15.08840371 54943,6917.879,95.438,541.393,538.095,0.0
49745.0,STARLINK-3241,PAYLOAD,2022-11-29 15:54:24,15.08843148,0.000239,53.2166,118.302,53.5139,306.6073,6.7617e-05,7.88e-06,0.0,0 STARLINK-3241,1 49745U 21115X   22333.66277793  .00000788  00000-0  67617-4 0  9993,2 49745  53.2166 118.3020 0002390  53.5139 306.6073 15.08843148 56085,6917.871,95.437,541.389,538.082,0.0
49745.0,STARLINK-3241,PAYLOAD,2022-11-30 09:23:38,15.088357,0.00024,53.2172,115.0314,52.6321,307.4889,0.00010447,1.375e-05,0.0,0 STARLINK-3241,1 49745U 21115X   22334.39142257  .00001375  00000-0  10447-3 0  9991,2 49745  53.2172 115.0314 0002400  52.6321 307.4889 15.08835700 56198,6917.894,95.438,541.419,538.0980000000002,0.0
49745.0,STARLINK-3241,PAYLOAD,2022-11-30 15:45:11,15.08837615,0.0002409,53.2173,113.8418,52.7479,307.3733,7.147100000000001e-05,8.49e-06,0.0,0 STARLINK-3241,1 49745U 21115X   22334.65638312  .00000849  00000-0  71471-4 0  9992,2 49745  53.2173 113.8418 0002409  52.7479 307.3733 15.08837615 55120,6917.888000000001,95.438,541.419,538.086,0.0
49745.0,STARLINK-3241,PAYLOAD,2022-12-01 09:14:25,15.0884381,0.0002399,53.2175,110.5707,53.3665,306.7548,5.655e-05,6.12e-06,0.0,0 STARLINK-3241,1 49745U 21115X   22335.38501953  .00000612  00000-0  56550-4 0  9992,2 49745  53.2175 110.5707 0002399  53.3665 306.7548 15.08843810 55232,6917.869000000002,95.437,541.393,538.0740000000002,0.0
49745.0,STARLINK-3241,PAYLOAD,2022-12-01 15:35:58,15.08841028,0.0002422,53.2177,109.3813,53.5853,306.5362,2.9879e-05,1.87e-06,0.0,0 STARLINK-3241,1 49745U 21115X   22335.64998181  .00000187  00000-0  29879-4 0  9995,2 49745  53.2177 109.3813 0002422  53.5853 306.5362 15.08841028 56384,6917.877,95.437,541.418,538.067,0.0
49745.0,STARLINK-3241,PAYLOAD,2022-12-02 09:05:13,15.08837531,0.0002371,53.2175,106.1103,52.738,307.3828,2.5527e-05,1.18e-06,0.0,0 STARLINK-3241,1 49745U 21115X   22336.37862409  .00000118  00000-0  25527-4 0  9999,2 49745  53.2175 106.1103 0002371  52.7380 307.3828 15.08837531 55387,6917.888000000001,95.438,541.393,538.113,0.0
49745.0,STARLINK-3241,PAYLOAD,2022-12-02 15:26:45,15.08836571,0.0002396,53.2177,104.9211,52.6374,307.4836,1.4959e-05,-5e-07,0.0,0 STARLINK-3241,1 49745U 21115X   22336.64358551 -.00000050  00000-0  14959-4 0  9990,2 49745  53.2177 104.9211 0002396  52.6374 307.4836 15.08836571 56535,6917.891,95.438,541.413,538.0980000000002,0.0
49745.0,STARLINK-3241,PAYLOAD,2022-12-03 13:42:09,15.08841894,0.0002232,53.2193,100.7591,45.5164,314.6011,8.7794e-05,1.109e-05,0.0,0 STARLINK-3241,1 49745U 21115X   22337.57093978  .00001109  00000-0  87794-4 0  9994,2 49745  53.2193 100.7591 0002232  45.5164 314.6011 15.08841894 55566,6917.875,95.437,541.284,538.196,0.0
49745.0,STARLINK-3241,PAYLOAD,2022-12-03 18:28:19,15.08834677,0.0002201,53.2173,99.866,45.3306,314.7866,3.5556e-05,2.78e-06,0.0,0 STARLINK-3241,1 49745U 21115X   22337.76966598  .00000278  00000-0  35556-4 0  9997,2 49745  53.2173  99.8660 0002201  45.3306 314.7866 15.08834677 56708,6917.897,95.438,541.284,538.239,0.0
49745.0,STARLINK-3241,PAYLOAD,2022-12-04 08:46:47,15.08837155,0.0002068,53.2177,97.1894,42.1405,317.9745,9.4255e-05,1.212e-05,0.0,0 STARLINK-3241,1 49745U 21115X   22338.36582340  .00001212  00000-0  94255-4 0  9993,2 49745  53.2177  97.1894 0002068  42.1405 317.9745 15.08837155 55689,6917.889,95.438,541.185,538.323,0.0
49745.0,STARLINK-3241,PAYLOAD,2022-12-04 15:08:20,15.08832898,0.0002167,53.2187,95.9999,36.7656,323.3484,5.2175e-05,5.42e-06,0.0,0 STARLINK-3241,1 49745U 21115X   22338.63078871  .00000542  00000-0  52175-4 0  9992,2 49745  53.2187  95.9999 0002167  36.7656 323.3484 15.08832898 55724,6917.901999999999,95.438,541.266,538.268,0.0
49745.0,STARLINK-3241,PAYLOAD,2022-12-05 00:40:38,15.08841023,0.00022,53.2186,94.2167,42.8657,317.2507,4.6971e-05,4.59e-06,0.0,0 STARLINK-3241,1 49745U 21115X   22339.02822480  .00000459  00000-0  46971-4 0  9993,2 49745  53.2186  94.2167 0002200  42.8657 317.2507 15.08841023 56896,6917.877,95.437,541.264,538.22,0.0
